ONEWEB-0255             
1 48973U 21060G   25334.76812002 -.00000047  00000+0 -15731-3 0  9995
2 48973  87.9031 268.2951 0002009  72.6682 287.4668 13.16593791213558
ONEWEB-0256             
1 48974U 21060H   25334.79424604  .00000020  00000+0  19671-4 0  9993
2 48974  87.9027 268.2990 0001786  79.7622 280.3710 13.16592975213520
ONEWEB-0257             
1 48975U 21060J   25334.82669816  .00000046  00000+0  86130-4 0  9996
2 48975  87.9036 268.2698 0001988  76.6864 283.4488 13.16594144213485
ONEWEB-0258             
1 48976U 21060K   25334.82828383  .00000077  00000+0  16677-3 0  9995
2 48976  87.9029 268.2855 0001771  72.9556 287.1769 13.16594219213497
ONEWEB-0259             
1 48977U 21060L   25334.82194856  .00000070  00000+0  15076-3 0  9992
2 48977  87.9039 268.2800 0001982  73.5563 286.5786 13.16594270213521
ONEWEB-0260             
1 48978U 21060M   25334.81324250  .00000116  00000+0  26944-3 0  9992
2 48978  87.9024 268.2969 0001877  89.2083 270.9263 13.16593622213501
ONEWEB-0261             
1 48979U 21060N   25334.85914395  .00000017  00000+0  10987-4 0  9993
2 48979  87.9025 268.2892 0002266  77.9143 282.2242 13.16596790213560
ONEWEB-0262             
1 48980U 21060P   25334.76336792 -.00000023  00000+0 -94194-4 0  9995
2 48980  87.9037 268.2809 0001964  68.1352 291.9987 13.16594710213519
