{
  "type": "FeatureCollection",
  "features": [
    {
      "type": "Feature",
      "properties": {
        "norad_id": 48973,
        "name": "ONEWEB-0255",
        "group": "active",
        "lat": NaN,
        "lon": NaN,
        "alt_km": NaN,
        "timestamp": "2025-12-01T03:08:33.343636+00:00",
        "meta": {
          "OBJECT_NAME": "ONEWEB-0255",
          "OBJECT_ID": "2021-060G",
          "EPOCH": "2025-11-30T18:26:05.569728",
          "MEAN_MOTION": 13.16593791,
          "ECCENTRICITY": 0.0002009,
          "INCLINATION": 87.9031,
          "RA_OF_ASC_NODE": 268.2951,
          "ARG_OF_PERICENTER": 72.6682,
          "MEAN_ANOMALY": 287.4668,
          "EPHEMERIS_TYPE": 0,
          "CLASSIFICATION_TYPE": "U",
          "NORAD_CAT_ID": 48973,
          "ELEMENT_SET_NO": 999,
          "REV_AT_EPOCH": 21355,
          "BSTAR": -0.00015731,
          "MEAN_MOTION_DOT": -4.7e-07,
          "MEAN_MOTION_DDOT": 0
        }
      },
      "geometry": {
        "type": "Point",
        "coordinates": [
          NaN,
          NaN
        ]
      }
    },
    {
      "type": "Feature",
      "properties": {
        "norad_id": 48974,
        "name": "ONEWEB-0256",
        "group": "active",
        "lat": NaN,
        "lon": NaN,
        "alt_km": NaN,
        "timestamp": "2025-12-01T03:08:33.343643+00:00",
        "meta": {
          "OBJECT_NAME": "ONEWEB-0256",
          "OBJECT_ID": "2021-060H",
          "EPOCH": "2025-11-30T19:03:42.857856",
          "MEAN_MOTION": 13.16592975,
          "ECCENTRICITY": 0.0001786,
          "INCLINATION": 87.9027,
          "RA_OF_ASC_NODE": 268.299,
          "ARG_OF_PERICENTER": 79.7622,
          "MEAN_ANOMALY": 280.371,
          "EPHEMERIS_TYPE": 0,
          "CLASSIFICATION_TYPE": "U",
          "NORAD_CAT_ID": 48974,
          "ELEMENT_SET_NO": 999,
          "REV_AT_EPOCH": 21352,
          "BSTAR": 1.9671e-05,
          "MEAN_MOTION_DOT": 2e-07,
          "MEAN_MOTION_DDOT": 0
        }
      },
      "geometry": {
        "type": "Point",
        "coordinates": [
          NaN,
          NaN
        ]
      }
    },
    {
      "type": "Feature",
      "properties": {
        "norad_id": 48975,
        "name": "ONEWEB-0257",
        "group": "active",
        "lat": NaN,
        "lon": NaN,
        "alt_km": NaN,
        "timestamp": "2025-12-01T03:08:33.343648+00:00",
        "meta": {
          "OBJECT_NAME": "ONEWEB-0257",
          "OBJECT_ID": "2021-060J",
          "EPOCH": "2025-11-30T19:50:26.721024",
          "MEAN_MOTION": 13.16594144,
          "ECCENTRICITY": 0.0001988,
          "INCLINATION": 87.9036,
          "RA_OF_ASC_NODE": 268.2698,
          "ARG_OF_PERICENTER": 76.6864,
          "MEAN_ANOMALY": 283.4488,
          "EPHEMERIS_TYPE": 0,
          "CLASSIFICATION_TYPE": "U",
          "NORAD_CAT_ID": 48975,
          "ELEMENT_SET_NO": 999,
          "REV_AT_EPOCH": 21348,
          "BSTAR": 8.613e-05,
          "MEAN_MOTION_DOT": 4.6e-07,
          "MEAN_MOTION_DDOT": 0
        }
      },
      "geometry": {
        "type": "Point",
        "coordinates": [
          NaN,
          NaN
        ]
      }
    },
    {
      "type": "Feature",
      "properties": {
        "norad_id": 48976,
        "name": "ONEWEB-0258",
        "group": "active",
        "lat": NaN,
        "lon": NaN,
        "alt_km": NaN,
        "timestamp": "2025-12-01T03:08:33.343653+00:00",
        "meta": {
          "OBJECT_NAME": "ONEWEB-0258",
          "OBJECT_ID": "2021-060K",
          "EPOCH": "2025-11-30T19:52:43.722912",
          "MEAN_MOTION": 13.16594219,
          "ECCENTRICITY": 0.0001771,
          "INCLINATION": 87.9029,
          "RA_OF_ASC_NODE": 268.2855,
          "ARG_OF_PERICENTER": 72.9556,
          "MEAN_ANOMALY": 287.1769,
          "EPHEMERIS_TYPE": 0,
          "CLASSIFICATION_TYPE": "U",
          "NORAD_CAT_ID": 48976,
          "ELEMENT_SET_NO": 999,
          "REV_AT_EPOCH": 21349,
          "BSTAR": 0.00016677,
          "MEAN_MOTION_DOT": 7.7e-07,
          "MEAN_MOTION_DDOT": 0
        }
      },
      "geometry": {
        "type": "Point",
        "coordinates": [
          NaN,
          NaN
        ]
      }
    },
    {
      "type": "Feature",
      "properties": {
        "norad_id": 48977,
        "name": "ONEWEB-0259",
        "group": "active",
        "lat": NaN,
        "lon": NaN,
        "alt_km": NaN,
        "timestamp": "2025-12-01T03:08:33.343659+00:00",
        "meta": {
          "OBJECT_NAME": "ONEWEB-0259",
          "OBJECT_ID": "2021-060L",
          "EPOCH": "2025-11-30T19:43:36.355584",
          "MEAN_MOTION": 13.1659427,
          "ECCENTRICITY": 0.0001982,
          "INCLINATION": 87.9039,
          "RA_OF_ASC_NODE": 268.28,
          "ARG_OF_PERICENTER": 73.5563,
          "MEAN_ANOMALY": 286.5786,
          "EPHEMERIS_TYPE": 0,
          "CLASSIFICATION_TYPE": "U",
          "NORAD_CAT_ID": 48977,
          "ELEMENT_SET_NO": 999,
          "REV_AT_EPOCH": 21352,
          "BSTAR": 0.00015076,
          "MEAN_MOTION_DOT": 7e-07,
          "MEAN_MOTION_DDOT": 0
        }
      },
      "geometry": {
        "type": "Point",
        "coordinates": [
          NaN,
          NaN
        ]
      }
    },
    {
      "type": "Feature",
      "properties": {
        "norad_id": 48978,
        "name": "ONEWEB-0260",
        "group": "active",
        "lat": NaN,
        "lon": NaN,
        "alt_km": NaN,
        "timestamp": "2025-12-01T03:08:33.343664+00:00",
        "meta": {
          "OBJECT_NAME": "ONEWEB-0260",
          "OBJECT_ID": "2021-060M",
          "EPOCH": "2025-11-30T19:31:04.152000",
          "MEAN_MOTION": 13.16593622,
          "ECCENTRICITY": 0.0001877,
          "INCLINATION": 87.9024,
          "RA_OF_ASC_NODE": 268.2969,
          "ARG_OF_PERICENTER": 89.2083,
          "MEAN_ANOMALY": 270.9263,
          "EPHEMERIS_TYPE": 0,
          "CLASSIFICATION_TYPE": "U",
          "NORAD_CAT_ID": 48978,
          "ELEMENT_SET_NO": 999,
          "REV_AT_EPOCH": 21350,
          "BSTAR": 0.00026944,
          "MEAN_MOTION_DOT": 1.16e-06,
          "MEAN_MOTION_DDOT": 0
        }
      },
      "geometry": {
        "type": "Point",
        "coordinates": [
          NaN,
          NaN
        ]
      }
    },
    {
      "type": "Feature",
      "properties": {
        "norad_id": 48979,
        "name": "ONEWEB-0261",
        "group": "active",
        "lat": NaN,
        "lon": NaN,
        "alt_km": NaN,
        "timestamp": "2025-12-01T03:08:33.343669+00:00",
        "meta": {
          "OBJECT_NAME": "ONEWEB-0261",
          "OBJECT_ID": "2021-060N",
          "EPOCH": "2025-11-30T20:37:10.037280",
          "MEAN_MOTION": 13.1659679,
          "ECCENTRICITY": 0.0002266,
          "INCLINATION": 87.9025,
          "RA_OF_ASC_NODE": 268.2892,
          "ARG_OF_PERICENTER": 77.9143,
          "MEAN_ANOMALY": 282.2242,
          "EPHEMERIS_TYPE": 0,
          "CLASSIFICATION_TYPE": "U",
          "NORAD_CAT_ID": 48979,
          "ELEMENT_SET_NO": 999,
          "REV_AT_EPOCH": 21356,
          "BSTAR": 1.0987e-05,
          "MEAN_MOTION_DOT": 1.7e-07,
          "MEAN_MOTION_DDOT": 0
        }
      },
      "geometry": {
        "type": "Point",
        "coordinates": [
          NaN,
          NaN
        ]
      }
    },
    {
      "type": "Feature",
      "properties": {
        "norad_id": 48980,
        "name": "ONEWEB-0262",
        "group": "active",
        "lat": NaN,
        "lon": NaN,
        "alt_km": NaN,
        "timestamp": "2025-12-01T03:08:33.343676+00:00",
        "meta": {
          "OBJECT_NAME": "ONEWEB-0262",
          "OBJECT_ID": "2021-060P",
          "EPOCH": "2025-11-30T18:19:14.988288",
          "MEAN_MOTION": 13.1659471,
          "ECCENTRICITY": 0.0001964,
          "INCLINATION": 87.9037,
          "RA_OF_ASC_NODE": 268.2809,
          "ARG_OF_PERICENTER": 68.1352,
          "MEAN_ANOMALY": 291.9987,
          "EPHEMERIS_TYPE": 0,
          "CLASSIFICATION_TYPE": "U",
          "NORAD_CAT_ID": 48980,
          "ELEMENT_SET_NO": 999,
          "REV_AT_EPOCH": 21351,
          "BSTAR": -9.4194e-05,
          "MEAN_MOTION_DOT": -2.3e-07,
          "MEAN_MOTION_DDOT": 0
        }
      },
      "geometry": {
        "type": "Point",
        "coordinates": [
          NaN,
          NaN
        ]
      }
    }
  ]
}